[{"OBJECT_NAME":"METEOSAT-11 (MSG-4)","OBJECT_ID":"2015-034A","EPOCH":"2026-03-05T05:29:06.759744","MEAN_MOTION":1.00266359,"ECCENTRICITY":0.00018046,"INCLINATION":2.9396,"RA_OF_ASC_NODE":71.6758,"ARG_OF_PERICENTER":270.6915,"MEAN_ANOMALY":272.2545,"EPHEMERIS_TYPE":0,"CLASSIFICATION_TYPE":"U","NORAD_CAT_ID":40732,"ELEMENT_SET_NO":999,"REV_AT_EPOCH":617,"BSTAR":0,"MEAN_MOTION_DOT":5.4e-7,"MEAN_MOTION_DDOT":0},{"OBJECT_NAME":"ELEKTRO-L 2","OBJECT_ID":"2015-074A","EPOCH":"2026-03-05T07:04:57.569664","MEAN_MOTION":1.00270976,"ECCENTRICITY":0.00034131,"INCLINATION":6.4333,"RA_OF_ASC_NODE":71.8021,"ARG_OF_PERICENTER":238.5441,"MEAN_ANOMALY":304.414,"EPHEMERIS_TYPE":0,"CLASSIFICATION_TYPE":"U","NORAD_CAT_ID":41105,"ELEMENT_SET_NO":999,"REV_AT_EPOCH":3746,"BSTAR":0,"MEAN_MOTION_DOT":-1.23e-6,"MEAN_MOTION_DDOT":0},{"OBJECT_NAME":"INSAT-3DR","OBJECT_ID":"2016-054A","EPOCH":"2026-03-05T01:31:11.726688","MEAN_MOTION":1.00272506,"ECCENTRICITY":0.0013197,"INCLINATION":0.0489,"RA_OF_ASC_NODE":96.2317,"ARG_OF_PERICENTER":185.6547,"MEAN_ANOMALY":337.6931,"EPHEMERIS_TYPE":0,"CLASSIFICATION_TYPE":"U","NORAD_CAT_ID":41752,"ELEMENT_SET_NO":999,"REV_AT_EPOCH":3477,"BSTAR":0,"MEAN_MOTION_DOT":-8.6e-7,"MEAN_MOTION_DDOT":0},{"OBJECT_NAME":"HIMAWARI-9","OBJECT_ID":"2016-064A","EPOCH":"2026-03-05T05:58:38.637984","MEAN_MOTION":1.00272099,"ECCENTRICITY":0.00011996,"INCLINATION":0.0137,"RA_OF_ASC_NODE":174.7942,"ARG_OF_PERICENTER":197.6115,"MEAN_ANOMALY":21.0158,"EPHEMERIS_TYPE":0,"CLASSIFICATION_TYPE":"U","NORAD_CAT_ID":41836,"ELEMENT_SET_NO":999,"REV_AT_EPOCH":3416,"BSTAR":0,"MEAN_MOTION_DOT":-2.83e-6,"MEAN_MOTION_DDOT":0},{"OBJECT_NAME":"GOES 16","OBJECT_ID":"2016-071A","EPOCH":"2026-03-05T06:39:15.034176","MEAN_MOTION":1.00271815,"ECCENTRICITY":0.00024644,"INCLINATION":0.1401,"RA_OF_ASC_NODE":89.6705,"ARG_OF_PERICENTER":221.2947,"MEAN_ANOMALY":207.1543,"EPHEMERIS_TYPE":0,"CLASSIFICATION_TYPE":"U","NORAD_CAT_ID":41866,"ELEMENT_SET_NO":999,"REV_AT_EPOCH":3406,"BSTAR":0,"MEAN_MOTION_DOT":-9.9e-7,"MEAN_MOTION_DDOT":0},{"OBJECT_NAME":"FENGYUN 4A","OBJECT_ID":"2016-077A","EPOCH":"2026-03-05T06:01:41.137248","MEAN_MOTION":1.00278774,"ECCENTRICITY":0.00074019,"INCLINATION":2.0582,"RA_OF_ASC_NODE":81.4022,"ARG_OF_PERICENTER":135.6917,"MEAN_ANOMALY":159.8997,"EPHEMERIS_TYPE":0,"CLASSIFICATION_TYPE":"U","NORAD_CAT_ID":41882,"ELEMENT_SET_NO":999,"REV_AT_EPOCH":3388,"BSTAR":0,"MEAN_MOTION_DOT":-3.65e-6,"MEAN_MOTION_DDOT":0},{"OBJECT_NAME":"CYGFM05","OBJECT_ID":"2016-078A","EPOCH":"2026-03-04T21:01:41.539008","MEAN_MOTION":15.5189322,"ECCENTRICITY":0.00070253,"INCLINATION":34.9567,"RA_OF_ASC_NODE":228.9367,"ARG_OF_PERICENTER":244.1727,"MEAN_ANOMALY":115.8271,"EPHEMERIS_TYPE":0,"CLASSIFICATION_TYPE":"U","NORAD_CAT_ID":41884,"ELEMENT_SET_NO":999,"REV_AT_EPOCH":51251,"BSTAR":0.00045929274,"MEAN_MOTION_DOT":0.00028492,"MEAN_MOTION_DDOT":0},{"OBJECT_NAME":"CYGFM04","OBJECT_ID":"2016-078B","EPOCH":"2026-03-05T01:32:39.159168","MEAN_MOTION":15.55301579,"ECCENTRICITY":0.00061248,"INCLINATION":34.9331,"RA_OF_ASC_NODE":199.9369,"ARG_OF_PERICENTER":279.9898,"MEAN_ANOMALY":80.0135,"EPHEMERIS_TYPE":0,"CLASSIFICATION_TYPE":"U","NORAD_CAT_ID":41885,"ELEMENT_SET_NO":999,"REV_AT_EPOCH":51274,"BSTAR":0.00046957857,"MEAN_MOTION_DOT":0.00033005,"MEAN_MOTION_DDOT":0},{"OBJECT_NAME":"CYGFM02","OBJECT_ID":"2016-078C","EPOCH":"2026-03-04T17:10:52.573728","MEAN_MOTION":15.57542778,"ECCENTRICITY":0.00071277,"INCLINATION":34.9412,"RA_OF_ASC_NODE":199.2479,"ARG_OF_PERICENTER":278.5121,"MEAN_ANOMALY":81.4795,"EPHEMERIS_TYPE":0,"CLASSIFICATION_TYPE":"U","NORAD_CAT_ID":41886,"ELEMENT_SET_NO":999,"REV_AT_EPOCH":51283,"BSTAR":0.0012024018,"MEAN_MOTION_DOT":0.00092679,"MEAN_MOTION_DDOT":0},{"OBJECT_NAME":"CYGFM01","OBJECT_ID":"2016-078D","EPOCH":"2026-03-04T20:10:11.398944","MEAN_MOTION":15.5232865,"ECCENTRICITY":0.00067553,"INCLINATION":34.9398,"RA_OF_ASC_NODE":230.9847,"ARG_OF_PERICENTER":236.4378,"MEAN_ANOMALY":123.57,"EPHEMERIS_TYPE":0,"CLASSIFICATION_TYPE":"U","NORAD_CAT_ID":41887,"ELEMENT_SET_NO":999,"REV_AT_EPOCH":51245,"BSTAR":0.0005022594,"MEAN_MOTION_DOT":0.00031667,"MEAN_MOTION_DDOT":0},{"OBJECT_NAME":"CYGFM08","OBJECT_ID":"2016-078E","EPOCH":"2026-03-04T19:48:12.477888","MEAN_MOTION":15.53806957,"ECCENTRICITY":0.00081848,"INCLINATION":34.9433,"RA_OF_ASC_NODE":213.0092,"ARG_OF_PERICENTER":260.5946,"MEAN_ANOMALY":99.3853,"EPHEMERIS_TYPE":0,"CLASSIFICATION_TYPE":"U","NORAD_CAT_ID":41888,"ELEMENT_SET_NO":999,"REV_AT_EPOCH":51269,"BSTAR":0.00048645806,"MEAN_MOTION_DOT":0.00032381,"MEAN_MOTION_DDOT":0},{"OBJECT_NAME":"CYGFM07","OBJECT_ID":"2016-078G","EPOCH":"2026-03-04T17:30:42.423552","MEAN_MOTION":15.54493592,"ECCENTRICITY":0.00066666,"INCLINATION":34.9455,"RA_OF_ASC_NODE":202.1182,"ARG_OF_PERICENTER":280.0575,"MEAN_ANOMALY":79.9396,"EPHEMERIS_TYPE":0,"CLASSIFICATION_TYPE":"U","NORAD_CAT_ID":41890,"ELEMENT_SET_NO":999,"REV_AT_EPOCH":51270,"BSTAR":0.00051977692,"MEAN_MOTION_DOT":0.00035481,"MEAN_MOTION_DDOT":0},{"OBJECT_NAME":"CYGFM03","OBJECT_ID":"2016-078H","EPOCH":"2026-03-04T18:21:34.461216","MEAN_MOTION":15.54513472,"ECCENTRICITY":0.00059605,"INCLINATION":34.9407,"RA_OF_ASC_NODE":203.8627,"ARG_OF_PERICENTER":266.0807,"MEAN_ANOMALY":93.9235,"EPHEMERIS_TYPE":0,"CLASSIFICATION_TYPE":"U","NORAD_CAT_ID":41891,"ELEMENT_SET_NO":999,"REV_AT_EPOCH":51268,"BSTAR":0.00053420868,"MEAN_MOTION_DOT":0.00036492,"MEAN_MOTION_DDOT":0},{"OBJECT_NAME":"FENGYUN 3D","OBJECT_ID":"2017-072A","EPOCH":"2026-03-05T06:23:57.507648","MEAN_MOTION":14.19714419,"ECCENTRICITY":0.00018045,"INCLINATION":99.002,"RA_OF_ASC_NODE":36.8703,"ARG_OF_PERICENTER":21.7267,"MEAN_ANOMALY":338.3984,"EPHEMERIS_TYPE":0,"CLASSIFICATION_TYPE":"U","NORAD_CAT_ID":43010,"ELEMENT_SET_NO":999,"REV_AT_EPOCH":43024,"BSTAR":0.00025564018,"MEAN_MOTION_DOT":4.95e-6,"MEAN_MOTION_DDOT":0},{"OBJECT_NAME":"NOAA 20 (JPSS-1)","OBJECT_ID":"2017-073A","EPOCH":"2026-03-05T05:55:28.354944","MEAN_MOTION":14.19534754,"ECCENTRICITY":0.00010111,"INCLINATION":98.7688,"RA_OF_ASC_NODE":4.6783,"ARG_OF_PERICENTER":143.4453,"MEAN_ANOMALY":216.6792,"EPHEMERIS_TYPE":0,"CLASSIFICATION_TYPE":"U","NORAD_CAT_ID":43013,"ELEMENT_SET_NO":999,"REV_AT_EPOCH":42972,"BSTAR":7.6800451e-5,"MEAN_MOTION_DOT":1.18e-6,"MEAN_MOTION_DDOT":0},{"OBJECT_NAME":"GOES 17","OBJECT_ID":"2018-022A","EPOCH":"2026-03-05T05:00:54.462816","MEAN_MOTION":1.00270294,"ECCENTRICITY":0.00022041,"INCLINATION":0.6702,"RA_OF_ASC_NODE":87.5386,"ARG_OF_PERICENTER":223.0782,"MEAN_ANOMALY":198.0411,"EPHEMERIS_TYPE":0,"CLASSIFICATION_TYPE":"U","NORAD_CAT_ID":43226,"ELEMENT_SET_NO":999,"REV_AT_EPOCH":2938,"BSTAR":0,"MEAN_MOTION_DOT":-1.91e-6,"MEAN_MOTION_DDOT":0},{"OBJECT_NAME":"FENGYUN 2H","OBJECT_ID":"2018-050A","EPOCH":"2026-03-05T04:06:14.705856","MEAN_MOTION":1.00272568,"ECCENTRICITY":0.00018597,"INCLINATION":2.7627,"RA_OF_ASC_NODE":80.3493,"ARG_OF_PERICENTER":174.7166,"MEAN_ANOMALY":48.471,"EPHEMERIS_TYPE":0,"CLASSIFICATION_TYPE":"U","NORAD_CAT_ID":43491,"ELEMENT_SET_NO":999,"REV_AT_EPOCH":2839,"BSTAR":0,"MEAN_MOTION_DOT":-1.35e-6,"MEAN_MOTION_DDOT":0}]
