METEOSAT-11 (MSG-4)     
1 40732U 15034A   26064.22855046  .00000054  00000+0  00000+0 0  9996
2 40732   2.9396  71.6758 0001804 270.6915 272.2545  1.00266359  6177
ELEKTRO-L 2             
1 41105U 15074A   26064.29511076 -.00000123  00000+0  00000+0 0  9992
2 41105   6.4333  71.8021 0003413 238.5441 304.4140  1.00270976 37467
INSAT-3DR               
1 41752U 16054A   26064.06333017 -.00000086  00000+0  00000+0 0  9999
2 41752   0.0489  96.2317 0013197 185.6547 337.6931  1.00272506 34773
HIMAWARI-9              
1 41836U 16064A   26064.24905831 -.00000283  00000+0  00000+0 0  9991
2 41836   0.0137 174.7942 0001199 197.6115  21.0158  1.00272099 34160
GOES 16                 
1 41866U 16071A   26064.27725734 -.00000099  00000+0  00000+0 0  9992
2 41866   0.1401  89.6705 0002464 221.2947 207.1543  1.00271815 34061
FENGYUN 4A              
1 41882U 16077A   26064.25117057 -.00000365  00000+0  00000+0 0  9993
2 41882   2.0582  81.4022 0007401 135.6917 159.8997  1.00278774 33889
CYGFM05                 
1 41884U 16078A   26063.87617522  .00028492  00000+0  45929-3 0  9998
2 41884  34.9567 228.9367 0007025 244.1727 115.8271 15.51893220512514
CYGFM04                 
1 41885U 16078B   26064.06434212  .00033005  00000+0  46958-3 0  9993
2 41885  34.9331 199.9369 0006124 279.9898  80.0135 15.55301579512749
CYGFM02                 
1 41886U 16078C   26063.71588627  .00092679  00000+0  12024-2 0  9993
2 41886  34.9412 199.2479 0007127 278.5121  81.4795 15.57542778512830
CYGFM01                 
1 41887U 16078D   26063.84040971  .00031667  00000+0  50226-3 0  9990
2 41887  34.9398 230.9847 0006755 236.4378 123.5700 15.52328650512457
CYGFM08                 
1 41888U 16078E   26063.82514442  .00032381  00000+0  48646-3 0  9995
2 41888  34.9433 213.0092 0008184 260.5946  99.3853 15.53806957512696
CYGFM07                 
1 41890U 16078G   26063.72965768  .00035481  00000+0  51978-3 0  9994
2 41890  34.9455 202.1182 0006666 280.0575  79.9396 15.54493592512706
CYGFM03                 
1 41891U 16078H   26063.76498219  .00036492  00000+0  53421-3 0  9999
2 41891  34.9407 203.8627 0005960 266.0807  93.9235 15.54513472512689
FENGYUN 3D              
1 43010U 17072A   26064.26663782  .00000495  00000+0  25564-3 0  9995
2 43010  99.0020  36.8703 0001804  21.7267 338.3984 14.19714419430247
NOAA 20 (JPSS-1)        
1 43013U 17073A   26064.24685596  .00000118  00000+0  76800-4 0  9996
2 43013  98.7688   4.6783 0001011 143.4453 216.6792 14.19534754429724
GOES 17                 
1 43226U 18022A   26064.20896369 -.00000191  00000+0  00000+0 0  9991
2 43226   0.6702  87.5386 0002204 223.0782 198.0411  1.00270294 29384
FENGYUN 2H              
1 43491U 18050A   26064.17100354 -.00000135  00000+0  00000+0 0  9992
2 43491   2.7627  80.3493 0001859 174.7166  48.4710  1.00272568 28396
